start=new Date('2021-12-22T00:00:00.000Z').valueOf();
sats=[{"OBJECT_TYPE":"PAYLOAD","REF_FRAME":"TEME","TLE_LINE1":"1 46346U 20062X   21355.90126381  .00001528  00000-0  56576-4 0  9998","MEAN_MOTION_DDOT":"0.0000000000000","PERIOD":"93.855","OBJECT_NAME":"STARLINK-1546","REV_AT_EPOCH":"7409","DECAY_DATE":null,"APOAPSIS":"465.307","MEAN_MOTION_DOT":"0.00001528","RCS_SIZE":"LARGE","RA_OF_ASC_NODE":"322.8415","CENTER_NAME":"EARTH","BSTAR":"0.00005657600000","INCLINATION":"53.0544","TIME_SYSTEM":"UTC","LAUNCH_DATE":"2020-09-03","ECCENTRICITY":"0.00033100","FILE":"3246784","SEMIMAJOR_AXIS":"6841.178","CLASSIFICATION_TYPE":"U","COUNTRY_CODE":"US","MEAN_ANOMALY":"306.3872","TLE_LINE2":"2 46346  53.0544 322.8415 0003310  53.7435 306.3872 15.34286531 74092","SITE":"AFETR","EPOCH":"2021-12-21T21:37:49.193184","MEAN_ELEMENT_THEORY":"SGP4","ARG_OF_PERICENTER":"53.7435","GP_ID":"192177920","OBJECT_ID":"2020-062X","MEAN_MOTION":"15.34286531","NORAD_CAT_ID":"46346","PERIAPSIS":"460.778","ELEMENT_SET_NO":"999","EPHEMERIS_TYPE":"0"},{"ELEMENT_SET_NO":"999","EPHEMERIS_TYPE":"0","MEAN_MOTION":"15.06403934","OBJECT_ID":"2020-062Y","PERIAPSIS":"546.160","NORAD_CAT_ID":"46347","EPOCH":"2021-12-21T15:17:02.112864","MEAN_ELEMENT_THEORY":"SGP4","GP_ID":"192178170","ARG_OF_PERICENTER":"72.1818","MEAN_ANOMALY":"287.9335","TLE_LINE2":"2 46347  53.0549  40.6832 0001504  72.1818 287.9335 15.06403934 72957","SITE":"AFETR","COUNTRY_CODE":"US","SEMIMAJOR_AXIS":"6925.337","FILE":"3246784","CLASSIFICATION_TYPE":"U","ECCENTRICITY":"0.00015040","INCLINATION":"53.0549","BSTAR":"0.00010936000000","LAUNCH_DATE":"2020-09-03","TIME_SYSTEM":"UTC","RCS_SIZE":"LARGE","CENTER_NAME":"EARTH","RA_OF_ASC_NODE":"40.6832","APOAPSIS":"548.243","MEAN_MOTION_DOT":"0.00001348","DECAY_DATE":null,"REV_AT_EPOCH":"7295","OBJECT_NAME":"STARLINK-1547","TLE_LINE1":"1 46347U 20062Y   21355.63683001  .00001348  00000-0  10936-3 0  9995","PERIOD":"95.592","MEAN_MOTION_DDOT":"0.0000000000000","REF_FRAME":"TEME","OBJECT_TYPE":"PAYLOAD"},{"ECCENTRICITY":"0.00016860","FILE":"3246784","SEMIMAJOR_AXIS":"6925.293","CLASSIFICATION_TYPE":"U","COUNTRY_CODE":"US","MEAN_ANOMALY":"281.0804","SITE":"AFETR","TLE_LINE2":"2 46348  53.0539  65.7875 0001686  79.0374 281.0804 15.06418242 72613","EPOCH":"2021-12-21T14:44:30.348096","MEAN_ELEMENT_THEORY":"SGP4","ARG_OF_PERICENTER":"79.0374","GP_ID":"192178919","OBJECT_ID":"2020-062Z","MEAN_MOTION":"15.06418242","NORAD_CAT_ID":"46348","PERIAPSIS":"545.990","ELEMENT_SET_NO":"999","EPHEMERIS_TYPE":"0","OBJECT_TYPE":"PAYLOAD","REF_FRAME":"TEME","TLE_LINE1":"1 46348U 20062Z   21355.61424014  .00004883  00000-0  34632-3 0  9997","MEAN_MOTION_DDOT":"0.0000000000000","PERIOD":"95.591","OBJECT_NAME":"STARLINK-1553","REV_AT_EPOCH":"7261","DECAY_DATE":null,"APOAPSIS":"548.325","MEAN_MOTION_DOT":"0.00004883","RCS_SIZE":"LARGE","RA_OF_ASC_NODE":"65.7875","CENTER_NAME":"EARTH","BSTAR":"0.00034632000000","INCLINATION":"53.0539","TIME_SYSTEM":"UTC","LAUNCH_DATE":"2020-09-03"},{"CLASSIFICATION_TYPE":"U","SEMIMAJOR_AXIS":"6925.270","FILE":"3246489","ECCENTRICITY":"0.00012430","COUNTRY_CODE":"US","GP_ID":"192148262","ARG_OF_PERICENTER":"67.4758","EPOCH":"2021-12-21T13:04:20.744256","MEAN_ELEMENT_THEORY":"SGP4","TLE_LINE2":"2 46349  53.0647  41.0662 0001243  67.4758 292.6362 15.06425690 72950","SITE":"AFETR","MEAN_ANOMALY":"292.6362","EPHEMERIS_TYPE":"0","ELEMENT_SET_NO":"999","PERIAPSIS":"546.274","NORAD_CAT_ID":"46349","MEAN_MOTION":"15.06425690","OBJECT_ID":"2020-062AA","PERIOD":"95.591","MEAN_MOTION_DDOT":"0.0000000000000","TLE_LINE1":"1 46349U 20062AA  21355.54468454  .00005775  00000-0  40599-3 0  9996","REF_FRAME":"TEME","OBJECT_TYPE":"PAYLOAD","DECAY_DATE":null,"REV_AT_EPOCH":"7295","OBJECT_NAME":"STARLINK-1575","CENTER_NAME":"EARTH","RA_OF_ASC_NODE":"41.0662","RCS_SIZE":"LARGE","MEAN_MOTION_DOT":"0.00005775","APOAPSIS":"547.996","LAUNCH_DATE":"2020-09-03","TIME_SYSTEM":"UTC","INCLINATION":"53.0647","BSTAR":"0.00040599000000"},{"EPHEMERIS_TYPE":"0","ELEMENT_SET_NO":"999","NORAD_CAT_ID":"46350","PERIAPSIS":"546.306","OBJECT_ID":"2020-062AB","MEAN_MOTION":"15.06406923","ARG_OF_PERICENTER":"95.9405","GP_ID":"192177421","EPOCH":"2021-12-21T15:24:19.855008","MEAN_ELEMENT_THEORY":"SGP4","SITE":"AFETR","TLE_LINE2":"2 46350  53.0563  85.6645 0001280  95.9405 264.1730 15.06406923 72344","MEAN_ANOMALY":"264.1730","COUNTRY_CODE":"US","CLASSIFICATION_TYPE":"U","FILE":"3246784","SEMIMAJOR_AXIS":"6925.327","ECCENTRICITY":"0.00012800","TIME_SYSTEM":"UTC","LAUNCH_DATE":"2020-09-03","BSTAR":"0.00007313300000","INCLINATION":"53.0563","RA_OF_ASC_NODE":"85.6645","CENTER_NAME":"EARTH","RCS_SIZE":"LARGE","MEAN_MOTION_DOT":"0.00000808","APOAPSIS":"548.079","DECAY_DATE":null,"OBJECT_NAME":"STARLINK-1617","REV_AT_EPOCH":"7234","MEAN_MOTION_DDOT":"0.0000000000000","PERIOD":"95.592","TLE_LINE1":"1 46350U 20062AB  21355.64189647  .00000808  00000-0  73133-4 0  9996","OBJECT_TYPE":"PAYLOAD","REF_FRAME":"TEME"},{"EPHEMERIS_TYPE":"0","ELEMENT_SET_NO":"999","PERIAPSIS":"546.124","NORAD_CAT_ID":"46351","MEAN_MOTION":"15.06399458","OBJECT_ID":"2020-062AC","GP_ID":"192177671","ARG_OF_PERICENTER":"83.0681","EPOCH":"2021-12-21T17:07:50.497824","MEAN_ELEMENT_THEORY":"SGP4","TLE_LINE2":"2 46351  53.0534  65.3471 0001576  83.0681 277.0487 15.06399458 72635","SITE":"AFETR","MEAN_ANOMALY":"277.0487","COUNTRY_CODE":"US","CLASSIFICATION_TYPE":"U","SEMIMAJOR_AXIS":"6925.350","FILE":"3246784","ECCENTRICITY":"0.00015760","LAUNCH_DATE":"2020-09-03","TIME_SYSTEM":"UTC","INCLINATION":"53.0534","BSTAR":"0.00016492000000","CENTER_NAME":"EARTH","RA_OF_ASC_NODE":"65.3471","RCS_SIZE":"LARGE","MEAN_MOTION_DOT":"0.00002176","APOAPSIS":"548.307","DECAY_DATE":null,"REV_AT_EPOCH":"7263","OBJECT_NAME":"STARLINK-1646","PERIOD":"95.592","MEAN_MOTION_DDOT":"0.0000000000000","TLE_LINE1":"1 46351U 20062AC  21355.71377891  .00002176  00000-0  16492-3 0  9999","REF_FRAME":"TEME","OBJECT_TYPE":"PAYLOAD"},{"OBJECT_NAME":"STARLINK-1653","REV_AT_EPOCH":"7263","DECAY_DATE":null,"OBJECT_TYPE":"PAYLOAD","REF_FRAME":"TEME","MEAN_MOTION_DDOT":"0.0000000000000","PERIOD":"95.592","TLE_LINE1":"1 46352U 20062AD  21355.69534216  .00001272  00000-0  10424-3 0  9998","TIME_SYSTEM":"UTC","LAUNCH_DATE":"2020-09-03","BSTAR":"0.00010424000000","INCLINATION":"53.0545","MEAN_MOTION_DOT":"0.00001272","APOAPSIS":"548.163","RA_OF_ASC_NODE":"65.4265","CENTER_NAME":"EARTH","RCS_SIZE":"LARGE","COUNTRY_CODE":"US","ECCENTRICITY":"0.00013990","CLASSIFICATION_TYPE":"U","FILE":"3246784","SEMIMAJOR_AXIS":"6925.330","NORAD_CAT_ID":"46352","PERIAPSIS":"546.226","OBJECT_ID":"2020-062AD","MEAN_MOTION":"15.06406190","EPHEMERIS_TYPE":"0","ELEMENT_SET_NO":"999","SITE":"AFETR","TLE_LINE2":"2 46352  53.0545  65.4265 0001399  88.2202 271.8947 15.06406190 72634","MEAN_ANOMALY":"271.8947","ARG_OF_PERICENTER":"88.2202","GP_ID":"192178420","EPOCH":"2021-12-21T16:41:17.562624","MEAN_ELEMENT_THEORY":"SGP4"},{"PERIAPSIS":"546.088","NORAD_CAT_ID":"46353","MEAN_MOTION":"15.06407366","OBJECT_ID":"2020-062AE","EPHEMERIS_TYPE":"0","ELEMENT_SET_NO":"999","SITE":"AFETR","TLE_LINE2":"2 46353  53.0549  85.1473 0001593  91.6639 268.4532 15.06407366 72354","MEAN_ANOMALY":"268.4532","GP_ID":"192178673","ARG_OF_PERICENTER":"91.6639","EPOCH":"2021-12-21T18:14:10.713408","MEAN_ELEMENT_THEORY":"SGP4","COUNTRY_CODE":"US","ECCENTRICITY":"0.00015930","CLASSIFICATION_TYPE":"U","SEMIMAJOR_AXIS":"6925.326","FILE":"3246784","LAUNCH_DATE":"2020-09-03","TIME_SYSTEM":"UTC","INCLINATION":"53.0549","BSTAR":"0.00010024000000","MEAN_MOTION_DOT":"0.00001212","APOAPSIS":"548.294","CENTER_NAME":"EARTH","RA_OF_ASC_NODE":"85.1473","RCS_SIZE":"LARGE","REV_AT_EPOCH":"7235","OBJECT_NAME":"STARLINK-1656","DECAY_DATE":null,"REF_FRAME":"TEME","OBJECT_TYPE":"PAYLOAD","PERIOD":"95.592","MEAN_MOTION_DDOT":"0.0000000000000","TLE_LINE1":"1 46353U 20062AE  21355.75984622  .00001212  00000-0  10024-3 0  9996"},{"INCLINATION":"53.0541","BSTAR":"0.00006262300000","LAUNCH_DATE":"2020-09-03","TIME_SYSTEM":"UTC","RCS_SIZE":"LARGE","CENTER_NAME":"EARTH","RA_OF_ASC_NODE":"85.1854","APOAPSIS":"548.042","MEAN_MOTION_DOT":"0.00000652","DECAY_DATE":null,"REV_AT_EPOCH":"7235","OBJECT_NAME":"STARLINK-1657","TLE_LINE1":"1 46354U 20062AF  21355.74879116  .00000652  00000-0  62623-4 0  9997","PERIOD":"95.592","MEAN_MOTION_DDOT":"0.0000000000000","REF_FRAME":"TEME","OBJECT_TYPE":"PAYLOAD","ELEMENT_SET_NO":"999","EPHEMERIS_TYPE":"0","MEAN_MOTION":"15.06406247","OBJECT_ID":"2020-062AF","PERIAPSIS":"546.347","NORAD_CAT_ID":"46354","EPOCH":"2021-12-21T17:58:15.556224","MEAN_ELEMENT_THEORY":"SGP4","GP_ID":"192177921","ARG_OF_PERICENTER":"74.9978","MEAN_ANOMALY":"285.1147","TLE_LINE2":"2 46354  53.0541  85.1854 0001224  74.9978 285.1147 15.06406247 72356","SITE":"AFETR","COUNTRY_CODE":"US","SEMIMAJOR_AXIS":"6925.329","FILE":"3246784","CLASSIFICATION_TYPE":"U","ECCENTRICITY":"0.00012240"},{"MEAN_MOTION_DOT":"0.00001341","APOAPSIS":"548.177","RA_OF_ASC_NODE":"85.9038","CENTER_NAME":"EARTH","RCS_SIZE":"LARGE","TIME_SYSTEM":"UTC","LAUNCH_DATE":"2020-09-03","BSTAR":"0.00010892000000","INCLINATION":"53.0553","OBJECT_TYPE":"PAYLOAD","REF_FRAME":"TEME","MEAN_MOTION_DDOT":"0.0000000000000","PERIOD":"95.592","TLE_LINE1":"1 46355U 20062AG  21355.59029163  .00001341  00000-0  10892-3 0  9996","OBJECT_NAME":"STARLINK-1661","REV_AT_EPOCH":"7233","DECAY_DATE":null,"TLE_LINE2":"2 46355  53.0553  85.9038 0001414 100.2481 259.8668 15.06405064 72335","SITE":"AFETR","MEAN_ANOMALY":"259.8668","ARG_OF_PERICENTER":"100.2481","GP_ID":"192178171","MEAN_ELEMENT_THEORY":"SGP4","EPOCH":"2021-12-21T14:10:01.196832","NORAD_CAT_ID":"46355","PERIAPSIS":"546.219","OBJECT_ID":"2020-062AG","MEAN_MOTION":"15.06405064","EPHEMERIS_TYPE":"0","ELEMENT_SET_NO":"999","ECCENTRICITY":"0.00014140","CLASSIFICATION_TYPE":"U","FILE":"3246784","SEMIMAJOR_AXIS":"6925.333","COUNTRY_CODE":"US"}];
